CUAVA-2                 
1 60527U 24149BM  26068.46955133  .00015400  00000+0  47570-3 0  9993
2 60527  97.3769 149.9859 0005669 291.2139  68.8497 15.33611708 86877
STARLINK-35630          
1 66131U 25237T   26068.31985989  .00031796  00000+0  10812-2 0  9999
2 66131  53.1613  41.3639 0001587  83.8420 276.2762 15.30196359 22558
